ONEWEB-0627             
1 55168U 23004AE  23101.89575372  .00001265  00000+0  22814-3 0  9990
2 55168  86.6254 246.6015 0001404 129.2082 230.9257 14.65759629 13696
ONEWEB-0628             
1 55169U 23004AF  23101.91667824  .00030429  00000+0  55500-2 0  9999
2 55169  86.6288 246.6177 0003028 295.5199 212.5715 14.65851858  1300
ONEWEB-0629             
1 55170U 23004AG  23102.25001157 -.00773551  00000+0 -16436+0 0  9994
2 55170  86.6541 246.4384 0013637 268.6498 304.5575 14.61876603 13740
ONEWEB-0631             
1 55171U 23004AH  23101.91667824  .00026235  00000+0  47780-2 0  9993
2 55171  86.6279 246.6316 0001204  41.1458  41.6726 14.65943330  1305
ONEWEB-0709             
1 55172U 23004AJ  23102.25001157  .00000015  00000+0  00000+0 0  9992
2 55172  87.5996 252.4118 0008962 322.5601 296.1994 13.61481270 13404
ONEWEB-0710             
1 55173U 23004AK  23101.84590587  .00001085  00000+0  19442-3 0  9999
2 55173  86.6264 246.6665 0011952 268.4332  91.5513 14.65841531 13686
ONEWEB-0711             
1 55174U 23004AL  23102.25001157  .00000015  00000+0  00000+0 0  9994
2 55174  87.5666 252.3421 0006086 249.0925 310.1337 13.56105128 13387
ONEWEB-0713             
1 55175U 23004AM  23102.25001157  .00000015  00000+0  00000+0 0  9995
2 55175  87.5852 252.2994 0008249 275.0931 355.3408 13.56206501 13363
ONEWEB-0715             
1 55176U 23004AN  23101.91667824  .00000015  00000+0  00000+0 0  9997
2 55176  87.5833 252.5221 0010548 288.8287 143.2110 13.63310999  1300
ONEWEB-0716             
1 55177U 23004AP  23102.13238977  .00001383  00000+0  24945-3 0  9993
2 55177  86.6253 246.5653 0010611 263.4828  96.5178 14.65798853 13725
ONEWEB-0717             
1 55178U 23004AQ  23102.11399045  .00000886  00000+0  15826-3 0  9991
2 55178  86.6203 246.5997 0007659 255.7128 104.3235 14.65805616 13714
ONEWEB-0719             
1 55179U 23004AR  23101.89412076  .00001581  00000+0  28575-3 0  9994
2 55179  86.6227 246.6937 0002069 136.8192 223.3184 14.65818876 13689
ONEWEB-0530             
1 55796U 23029A   23101.78591068  .00006128  00000+0  60680-3 0  9998
2 55796  86.5130 184.7420 0012193 103.5572 256.7015 14.91633759  4921
ONEWEB-0534             
1 55797U 23029B   23101.78717852  .00005191  00000+0  51435-3 0  9997
2 55797  86.5078 184.7222 0012004 104.5956 255.6603 14.91578865  4928
ONEWEB-0556             
1 55798U 23029C   23102.18659323  .00004901  00000+0  48360-3 0  9992
2 55798  86.5115 184.5580 0012370 101.4832 258.7786 14.91730619  5666
ONEWEB-0562             
1 55799U 23029D   23101.78947177  .00005299  00000+0  52647-3 0  9999
2 55799  86.5082 184.7248 0011626 105.8791 254.3719 14.91480729  4928
ONEWEB-0563             
1 55800U 23029E   23101.78759608  .00005129  00000+0  50838-3 0  9994
2 55800  86.5128 184.7438 0011707 105.2797 254.9726 14.91565262  4923
ONEWEB-0564             
1 55801U 23029F   23101.78471136  .00005164  00000+0  51013-3 0  9997
2 55801  86.5086 184.7231 0012360 103.3760 256.8847 14.91695839  4922
ONEWEB-0638             
1 55802U 23029G   23101.77143740  .00005731  00000+0  55747-3 0  9992
2 55802  86.5110 184.7285 0014800 104.0719 256.2155 14.92303180  4925
ONEWEB-0639             
1 55803U 23029H   23101.50001157 -.00662804  00000+0 -11200+0 0  9993
2 55803  86.6459 185.1297 0011255 109.6462 242.1826 14.72066151  1308
ONEWEB-0640             
1 55804U 23029J   23102.30067306  .00005565  00000+0  53663-3 0  9997
2 55804  86.5097 184.4801 0015569 107.8358 252.4570 14.92631981  5681
ONEWEB-0641             
1 55805U 23029K   23102.58334491 -.00610024  00000+0 -10823+0 0  9991
2 55805  86.6738 184.6990 0013452 100.3265 249.5844 14.69709407  5707
ONEWEB-0642             
1 55806U 23029L   23102.58334491 -.00684790  00000+0 -11848+0 0  9991
2 55806  86.6555 184.6815 0011278 102.6957 273.2672 14.71125913  5708
ONEWEB-0643             
1 55807U 23029M   23101.77252318  .00005674  00000+0  55256-3 0  9990
2 55807  86.5095 184.7194 0015002 104.3588 255.9307 14.92252752  4926
ONEWEB-0644             
1 55808U 23029N   23102.58334491 -.00603117  00000+0 -10682+0 0  9992
2 55808  86.6717 184.7201 0011579 105.5424 183.2628 14.69779112  5709
ONEWEB-0645             
1 55809U 23029P   23102.58334491 -.00675916  00000+0 -11794+0 0  9994
2 55809  86.6559 184.6702 0013716 100.2730 321.4275 14.70692990  5700
ONEWEB-0646             
1 55810U 23029Q   23101.50001157 -.00711386  00000+0 -11969+0 0  9993
2 55810  86.6429 185.1349 0011112 104.0806 271.4182 14.72444667  5546
ONEWEB-0648             
1 55811U 23029R   23101.70333475  .00005881  00000+0  57130-3 0  9995
2 55811  86.5101 184.7518 0015244 104.3269 255.9653 14.92351877  4914
ONEWEB-0649             
1 55812U 23029S   23102.58334491 -.00614365  00000+0 -10828+0 0  9996
2 55812  86.6645 184.6770 0012046  96.1494 256.8795 14.70033033  5705
ONEWEB-0650             
1 55813U 23029T   23102.58334491 -.00659234  00000+0 -11812+0 0  9995
2 55813  86.6670 184.6963 0013083  99.9036 253.6091 14.69475970  5705
ONEWEB-0652             
1 55814U 23029U   23101.77426888  .00005647  00000+0  55108-3 0  9999
2 55814  86.5099 184.7206 0014593 103.6676 256.6178 14.92172122  4922
ONEWEB-0653             
1 55815U 23029V   23101.77497448  .00005775  00000+0  56413-3 0  9992
2 55815  86.5108 184.7299 0014344 103.0037 257.2793 14.92139515  4924
ONEWEB-0654             
1 55816U 23029W   23102.23332281  .00005657  00000+0  54529-3 0  9993
2 55816  86.5108 184.5125 0016186 106.8794 253.4210 14.92646608  5679
ONEWEB-0656             
1 55817U 23029X   23102.15981180  .00006896  00000+0  66026-3 0  9994
2 55817  86.5094 184.5344 0016570 111.3439 248.9559 14.92937033  5660
ONEWEB-0657             
1 55818U 23029Y   23102.58334491 -.00613295  00000+0 -11914+0 0  9990
2 55818  86.6878 184.7558 0015617 102.7709  67.7632 14.65690136  5698
ONEWEB-0658             
1 55819U 23029Z   23101.50001157 -.00671798  00000+0 -11666+0 0  9998
2 55819  86.6614 185.1323 0014407 104.3231 292.1873 14.70877224  1302
ONEWEB-0660             
1 55820U 23029AA  23101.77333819  .00005542  00000+0  54052-3 0  9998
2 55820  86.5109 184.7295 0014824 104.1847 256.1029 14.92190218  4928
ONEWEB-0661             
1 55821U 23029AB  23102.29874148  .00005667  00000+0  54521-3 0  9991
2 55821  86.5090 184.4762 0016163 107.5686 252.7310 14.92720372  5689
ONEWEB-0662             
1 55822U 23029AC  23101.77307662  .00005598  00000+0  54548-3 0  9998
2 55822  86.5110 184.7299 0014837 103.8970 256.3909 14.92225001  4921
ONEWEB-0663             
1 55823U 23029AD  23102.29551512  .00005725  00000+0  54877-3 0  9999
2 55823  86.5113 184.4818 0016442 110.0796 250.2204 14.92866201  5687
ONEWEB-0664             
1 55824U 23029AE  23101.29269708  .00005517  00000+0  53057-3 0  9990
2 55824  86.5085 184.9210 0016362 111.4792 248.8183 14.92729124  4858
ONEWEB-0665             
1 55825U 23029AF  23102.16742247  .00005871  00000+0  56668-3 0  9996
2 55825  86.5103 184.5412 0016015 106.6482 253.6506 14.92597249  5661
ONEWEB-0666             
1 55826U 23029AG  23101.42514004  .00006147  00000+0  59024-3 0  9999
2 55826  86.5121 184.8713 0016325 111.9995 248.2969 14.92810475  4875
ONEWEB-0667             
1 55827U 23029AH  23102.29295212  .00005680  00000+0  54275-3 0  9997
2 55827  86.5100 184.4763 0016747 111.3587 248.9431 14.92980963  5684
ONEWEB-0669             
1 55828U 23029AJ  23102.29475370  .00005682  00000+0  54408-3 0  9993
2 55828  86.5092 184.4747 0016505 110.5542 249.7459 14.92901944  5682
ONEWEB-0670             
1 55829U 23029AK  23101.29378045  .00005320  00000+0  51221-3 0  9993
2 55829  86.5113 184.9295 0015869 109.6296 250.6647 14.92678930  4851
ONEWEB-0671             
1 55830U 23029AL  23101.50001157 -.00706180  00000+0 -11991+0 0  9996
2 55830  86.6456 185.1157 0014315 103.0866 322.6542 14.71987637  1305
ONEWEB-0672             
1 55831U 23029AM  23102.29574481  .00005706  00000+0  54710-3 0  9993
2 55831  86.5085 184.4731 0016398 109.7902 250.5096 14.92856292  5683
ONEWEB-0673             
1 55832U 23029AN  23102.58334491 -.00608282  00000+0 -10929+0 0  9991
2 55832  86.6829 184.7240 0012333 101.6448 172.3362 14.69162703  5723
ONEWEB-0674             
1 55833U 23029AP  23102.29842430  .00005661  00000+0  54443-3 0  9990
2 55833  86.5119 184.4851 0016338 107.9775 252.3235 14.92734326  5686
ONEWEB-0675             
1 55834U 23029AQ  23102.58334491 -.00661005  00000+0 -11661+0 0  9999
2 55834  86.6651 184.6822 0012894  99.6137 272.0182 14.70165790  5736
ONEWEB-0720             
1 55835U 23029AR  23102.16816855  .00001662  00000+0  30427-3 0  9993
2 55835  86.6815 185.2552 0010537 109.0643 251.1712 14.65245854  5614
ONEWEB-0537             
1 56046U 23043A   23101.89442442  .00024775  00000+0  62238-3 0  9995
2 56046  87.4218 136.6998 0013556 201.1333 158.9364 15.39762348  2587
ONEWEB-0538             
1 56047U 23043B   23101.82857191  .00024747  00000+0  62001-3 0  9997
2 56047  87.4231 136.7240 0013316 200.3450 159.7276 15.39847547  2574
ONEWEB-0546             
1 56048U 23043C   23101.82656331  .00024715  00000+0  61549-3 0  9992
2 56048  87.4203 136.7192 0012811 197.5035 162.5780 15.40038290  2576
ONEWEB-0547             
1 56049U 23043D   23101.81667931  .00025209  00000+0  60956-3 0  9990
2 56049  87.4208 136.7149 0009396 189.1815 170.9270 15.40972909  2572
ONEWEB-0548             
1 56050U 23043E   23101.83227514  .00007421  00000+0  18784-3 0  9991
2 56050  87.4233 136.7271 0013511 206.0076 154.0502 15.39466250  2576
ONEWEB-0549             
1 56051U 23043F   23102.20892080  .00023367  00000+0  56890-3 0  9997
2 56051  87.4214 136.5815 0010610 188.1712 171.9373 15.40755350  3537
ONEWEB-0550             
1 56052U 23043G   23101.82262847  .00025218  00000+0  62045-3 0  9993
2 56052  87.4210 136.7173 0011862 190.7017 169.3988 15.40418183  2576
